OBJECT_NAME,OBJECT_ID,EPOCH,MEAN_MOTION,ECCENTRICITY,INCLINATION,RA_OF_ASC_NODE,ARG_OF_PERICENTER,MEAN_ANOMALY,EPHEMERIS_TYPE,CLASSIFICATION_TYPE,NORAD_CAT_ID,ELEMENT_SET_NO,REV_AT_EPOCH,BSTAR,MEAN_MOTION_DOT,MEAN_MOTION_DDOT
SWARM A,2013-067B,2026-06-16T06:02:38.121504,15.50938708,.00030081,87.3326,56.5896,95.0343,265.1261,0,U,39452,999,70610,.14958317E-3,.8702E-4,0
SWARM C,2013-067C,2026-06-16T06:02:28.269312,15.50937117,.00029833,87.3326,55.1707,94.6519,265.5083,0,U,39453,999,70606,.14849927E-3,.8639E-4,0
BRITE-CA1 (TORONTO),2014-033L,2026-06-16T06:58:10.073568,14.72675645,.00772295,97.9738,296.2348,279.9438,79.3059,0,U,40020,999,64208,.99119203E-4,.607E-5,0
OCO 2,2014-035A,2026-06-16T06:18:23.956992,14.57110606,.00015014,98.2018,108.5699,85.5349,274.6021,0,U,40059,999,63591,.84200301E-4,.334E-5,0
BRITE-PL2 (HEWELIUSZ),2014-049B,2026-06-16T07:14:54.064032,14.94590679,.00152506,97.9097,279.2951,111.1081,249.1771,0,U,40119,999,64131,.13880633E-3,.1445E-4,0
MMS 1,2015-011A,2026-06-16T08:00:01.999872,0.28354967,.83215625,72.1777,348.7729,167.4209,211.3137,0,U,40482,999,137,0,-.732E-5,0
MMS 2,2015-011B,2026-06-16T08:00:01.999872,0.28354988,.83223472,72.1778,348.7751,167.4265,211.3023,0,U,40483,999,137,0,-.732E-5,0
MMS 3,2015-011C,2026-06-16T08:00:01.999872,0.28354939,.83211396,72.1770,348.7754,167.4288,211.2864,0,U,40484,999,137,0,-.732E-5,0
MMS 4,2015-011D,2026-06-16T08:00:01.999872,0.28354939,.83211396,72.1770,348.7754,167.4288,211.2864,0,U,40485,999,137,0,-.732E-5,0
ASTROSAT,2015-052A,2026-06-15T13:03:37.935648,14.82504818,.00078138,5.9956,167.1769,7.2508,352.7733,0,U,40930,999,57958,.92748678E-4,.1433E-4,0
DAMPE,2015-078A,2026-06-16T06:04:41.244960,15.30784778,.00138337,97.4550,172.7157,80.1533,280.1269,0,U,41173,999,58440,.52343755E-4,.1483E-4,0
PISAT,2016-059B,2026-06-16T06:12:15.137856,14.68982128,.00283029,97.8179,167.7512,205.8139,154.1656,0,U,41784,999,51960,.13129333E-3,.726E-5,0
HXMT (HUIYAN),2017-034A,2026-06-16T08:16:48.681696,15.18473601,.00304963,43.0125,187.7306,141.6446,218.6578,0,U,42758,999,49753,.12332059E-3,.2371E-4,0
FLYING LAPTOP,2017-042G,2026-06-16T07:39:19.351008,15.01139426,.00195388,97.4680,322.8843,124.5322,235.7751,0,U,42831,999,48632,.18322224E-3,.2299E-4,0
ZHANGHENG 1-01 (CSES-1),2018-015C,2026-06-16T06:48:26.248896,15.20800911,.00170421,97.6867,332.9228,269.8336,90.0946,0,U,43194,999,46450,.25953185E-3,.5669E-4,0
SALSAT,2020-068K,2026-06-15T23:14:07.134432,15.29785416,.00081144,97.8844,169.9584,313.3675,46.6887,0,U,46495,999,31517,.23912148E-3,.682E-4,0
IXPE,2021-121A,2026-06-16T08:00:01.999872,15.10245673,.0007208,0.2315,324.4037,62.2268,276.7763,0,U,49954,999,543,.52029537E-3,.97E-4,0
SMILE,2026-109A,2026-05-24T15:40:35.120928,14.57062785,.00091232,70.0007,229.2745,259.5159,100.4951,0,U,69123,999,80,-.42378883E-3,-.1976E-4,0
