{
  "version": 1,
  "fetchedAt": "2026-06-16T16:59:36.124Z",
  "source": "celestrak-gp",
  "counts": {
    "station": 25,
    "satellite": 400,
    "debris": 250
  },
  "objects": [
    {
      "id": "42758",
      "name": "HXMT (HUIYAN)",
      "noradId": 42758,
      "line1": "1 42758U 17034A   26167.34500789  .00002371  00000+0  12332-3 0  9995",
      "line2": "2 42758  43.0125 187.7306 0030496 141.6446 218.6578 15.18473601497534",
      "category": "satellite"
    },
    {
      "id": "39452",
      "name": "SWARM A",
      "noradId": 39452,
      "line1": "1 39452U 13067B   26167.25183011  .00008702  00000+0  14958-3 0  9999",
      "line2": "2 39452  87.3326  56.5896 0003008  95.0343 265.1261 15.50938708706101",
      "category": "satellite"
    },
    {
      "id": "39453",
      "name": "SWARM C",
      "noradId": 39453,
      "line1": "1 39453U 13067C   26167.25171608  .00008639  00000+0  14850-3 0  9999",
      "line2": "2 39453  87.3326  55.1707 0002983  94.6519 265.5083 15.50937117706063",
      "category": "satellite"
    },
    {
      "id": "40020",
      "name": "BRITE-CA1 (TORONTO)",
      "noradId": 40020,
      "line1": "1 40020U 14033L   26167.29039437  .00000607  00000+0  99119-4 0  9991",
      "line2": "2 40020  97.9738 296.2348 0077229 279.9438  79.3059 14.72675645642084",
      "category": "satellite"
    },
    {
      "id": "40059",
      "name": "OCO 2",
      "noradId": 40059,
      "line1": "1 40059U 14035A   26167.26277728  .00000334  00000+0  84200-4 0  9991",
      "line2": "2 40059  98.2018 108.5699 0001501  85.5349 274.6021 14.57110606635914",
      "category": "satellite"
    },
    {
      "id": "40119",
      "name": "BRITE-PL2 (HEWELIUSZ)",
      "noradId": 40119,
      "line1": "1 40119U 14049B   26167.30201463  .00001445  00000+0  13881-3 0  9991",
      "line2": "2 40119  97.9097 279.2951 0015250 111.1081 249.1771 14.94590679641319",
      "category": "satellite"
    },
    {
      "id": "40482",
      "name": "MMS 1",
      "noradId": 40482,
      "line1": "1 40482U 15011A   26167.33335648 -.00000732  00000+0  00000+0 0  9994",
      "line2": "2 40482  72.1777 348.7729 8321562 167.4209 211.3137  0.28354967  1370",
      "category": "satellite"
    },
    {
      "id": "40483",
      "name": "MMS 2",
      "noradId": 40483,
      "line1": "1 40483U 15011B   26167.33335648 -.00000732  00000+0  00000+0 0  9995",
      "line2": "2 40483  72.1778 348.7751 8322347 167.4265 211.3023  0.28354988  1378",
      "category": "satellite"
    },
    {
      "id": "40484",
      "name": "MMS 3",
      "noradId": 40484,
      "line1": "1 40484U 15011C   26167.33335648 -.00000732  00000+0  00000+0 0  9996",
      "line2": "2 40484  72.1770 348.7754 8321139 167.4288 211.2864  0.28354939  1375",
      "category": "satellite"
    },
    {
      "id": "40485",
      "name": "MMS 4",
      "noradId": 40485,
      "line1": "1 40485U 15011D   26167.33335648 -.00000732  00000+0  00000+0 0  9997",
      "line2": "2 40485  72.1770 348.7754 8321139 167.4288 211.2864  0.28354939  1376",
      "category": "satellite"
    },
    {
      "id": "40930",
      "name": "ASTROSAT",
      "noradId": 40930,
      "line1": "1 40930U 15052A   26166.54418907  .00001433  00000+0  92749-4 0  9993",
      "line2": "2 40930   5.9956 167.1769 0007813   7.2508 352.7733 14.82504818579585",
      "category": "satellite"
    },
    {
      "id": "41173",
      "name": "DAMPE",
      "noradId": 41173,
      "line1": "1 41173U 15078A   26167.25325515  .00001483  00000+0  52344-4 0  9994",
      "line2": "2 41173  97.4550 172.7157 0013833  80.1533 280.1269 15.30784778584405",
      "category": "satellite"
    },
    {
      "id": "41784",
      "name": "PISAT",
      "noradId": 41784,
      "line1": "1 41784U 16059B   26167.25850854  .00000726  00000+0  13129-3 0  9997",
      "line2": "2 41784  97.8179 167.7512 0028302 205.8139 154.1656 14.68982128519607",
      "category": "satellite"
    },
    {
      "id": "42831",
      "name": "FLYING LAPTOP",
      "noradId": 42831,
      "line1": "1 42831U 17042G   26167.31897397  .00002299  00000+0  18322-3 0  9991",
      "line2": "2 42831  97.4680 322.8843 0019538 124.5322 235.7751 15.01139426486324",
      "category": "satellite"
    },
    {
      "id": "43194",
      "name": "ZHANGHENG 1-01 (CSES-1)",
      "noradId": 43194,
      "line1": "1 43194U 18015C   26167.28363714  .00005669  00000+0  25953-3 0  9994",
      "line2": "2 43194  97.6867 332.9228 0017042 269.8336  90.0946 15.20800911464500",
      "category": "satellite"
    },
    {
      "id": "46495",
      "name": "SALSAT",
      "noradId": 46495,
      "line1": "1 46495U 20068K   26166.96813813  .00006820  00000+0  23912-3 0  9999",
      "line2": "2 46495  97.8844 169.9584 0008114 313.3675  46.6887 15.29785416315178",
      "category": "satellite"
    },
    {
      "id": "49954",
      "name": "IXPE",
      "noradId": 49954,
      "line1": "1 49954U 21121A   26167.33335648  .00009700  00000+0  52030-3 0  9993",
      "line2": "2 49954   0.2315 324.4037 0007208  62.2268 276.7763 15.10245673  5434",
      "category": "satellite"
    },
    {
      "id": "69123",
      "name": "SMILE",
      "noradId": 69123,
      "line1": "1 69123U 26109A   26144.65318427 -.00001976  00000+0 -42379-3 0  9994",
      "line2": "2 69123  70.0007 229.2745 0009123 259.5159 100.4951 14.57062785   802",
      "category": "satellite"
    }
  ]
}